STARLINK-32761          
1 62749U 25014Q   26128.48126404  .00015827  00000+0  58334-3 0  9996
2 62749  42.9985 180.0118 0001607 271.1010  88.9658 15.27584521 72364
STARLINK-32763          
1 62750U 25014R   26129.19457615  .00022166  00000+0  81224-3 0  9996
2 62750  42.9995 172.4406 0001172   3.3605 356.7254 15.27594430 72519
STARLINK-32759          
1 62751U 25014S   26128.84031637  .00014868  00000+0  54841-3 0  9995
2 62751  42.9982 178.4128 0001740 269.5499  90.5153 15.27598164 72419
STARLINK-32756          
1 62752U 25014T   26128.85108107  .00020495  00000+0  75211-3 0  9991
2 62752  43.0038 175.0330 0001664 281.3299  78.7365 15.27584841 72451
STARLINK-32751          
1 62753U 25014U   26128.84467553  .00023168  00000+0  84847-3 0  9999
2 62753  43.0017 174.9847 0001252 261.6662  98.4048 15.27592664 72457
STARLINK-32740          
1 62754U 25014V   26128.39837052  .00010278  00000+0  38236-3 0  9994
2 62754  43.0008 176.7932 0001404 276.9970  83.0722 15.27591852 72393
STARLINK-32745          
1 62755U 25014W   26128.83309479  .00013427  00000+0  49658-3 0  9990
2 62755  43.0004 174.8931 0001392 271.1653  88.9039 15.27578166 72454
USA 485                 
1 62756U 25014X   26129.06673620  .00149236  00000+0  90229-3 0  9997
2 62756  42.9991 348.5861 0001867 260.4185  99.6473 15.76393396 74590
USA 486                 
1 62757U 25014Y   26128.93949089  .00330959  00000+0  19330-2 0  9995
2 62757  43.0000 349.3610 0002786 279.8555  80.2000 15.76645412 74581
STARLINK-33596          
1 62758U 25015A   26129.06927436  .00019132  00000+0  62677-3 0  9994
2 62758  53.1602  42.1338 0001237  74.6564 285.4574 15.31696130 73654
STARLINK-33589          
1 62759U 25015B   26129.07391625  .00003878  00000+0  13662-3 0  9991
2 62759  53.1602  42.1628 0001545 153.9259 206.1821 15.31713636 72960
STARLINK-33575          
1 62760U 25015C   26129.16668980 -.00058125  00000+0 -17224-2 0  9998
2 62760  53.1591  41.5151 0001843  70.9645 175.9594 15.34399562  5755
STARLINK-33584          
1 62761U 25015D   26129.00002315 -.00015734  00000+0 -52028-3 0  9997
2 62761  53.1581  42.2461 0001095  81.4759   4.7593 15.30195992  5888
STARLINK-33577          
1 62762U 25015E   26129.01723906  .00016686  00000+0  54781-3 0  9998
2 62762  53.1616  41.8069 0002299  93.7586 266.3679 15.31725948 73728
STARLINK-33597          
1 62763U 25015F   26129.07858677  .00016219  00000+0  53328-3 0  9997
2 62763  53.1614  42.1863 0001140 101.4920 258.6209 15.31700017 73729
STARLINK-33579          
1 62764U 25015G   26129.02257834  .00025339  00000+0  82509-3 0  9997
2 62764  53.1606  41.8450 0000815  54.6478 305.4600 15.31717316 73720
STARLINK-33592          
1 62765U 25015H   26129.03796412  .00008967  00000+0  27640-3 0  9992
2 62765  53.1602  41.9380 0001033 117.9254 242.1853 15.34378202 73590
STARLINK-33595          
1 62766U 25015J   26129.16668980  .00058996  00000+0  17956-2 0  9990
2 62766  53.1595  41.3542 0000913  71.5929 271.9133 15.33469339  5852
STARLINK-33572          
1 62767U 25015K   26129.05709720  .00002510  00000+0  96832-4 0  9990
2 62767  53.1591  42.0574 0001117  84.6231 275.4897 15.30199081 73661
STARLINK-33601          
1 62768U 25015L   26129.05076432  .00004057  00000+0  14902-3 0  9993
2 62768  53.1588  42.0181 0001179  88.8993 271.2143 15.30200471 73722
STARLINK-33569          
1 62769U 25015M   26129.03387918  .00003844  00000+0  14188-3 0  9995
2 62769  53.1591  41.9130 0001202 107.5418 252.5714 15.30191803 73721
STARLINK-33594          
1 62770U 25015N   26129.02649367  .00010217  00000+0  35657-3 0  9991
2 62770  53.1603  41.8629 0001184  91.5848 268.5289 15.30202696 73724
STARLINK-33598          
1 62771U 25015P   26129.03598701  .00025249  00000+0  86134-3 0  9995
2 62771  53.1593  41.9220 0001277 159.8408 200.2643 15.30213552 73724
STARLINK-33600          
1 62772U 25015Q   26129.07609448  .00018088  00000+0  62154-3 0  9990
2 62772  53.1612  42.1717 0001506  63.7754 296.3401 15.30189471 73723
STARLINK-33567          
1 62773U 25015R   26129.04759882  .00004885  00000+0  17694-3 0  9995
2 62773  53.1585  41.9948 0001017  71.2598 288.8513 15.30199470 73723
STARLINK-33574          
1 62774U 25015S   26129.04021345  .00022920  00000+0  78382-3 0  9993
2 62774  53.1577  41.9508 0001121  76.1394 283.9731 15.30189586 73445
STARLINK-33576          
1 62775U 25015T   26129.04428360  .00006233  00000+0  19549-3 0  9991
2 62775  53.1588  41.9764 0001060  77.9763 282.1358 15.34393379 73664
STARLINK-33570          
1 62776U 25015U   26129.03915479  .00004396  00000+0  16047-3 0  9991
2 62776  53.1591  41.9427 0001238  83.0621 277.0521 15.30195047 73666
STARLINK-33591          
1 62777U 25015V   26129.16668980  .00056918  00000+0  17305-2 0  9992
2 62777  53.1590  41.5529 0001271  84.8221 156.5777 15.33517881  5854
STARLINK-33573          
1 62778U 25015W   26129.03282477  .00014380  00000+0  49661-3 0  9990
2 62778  53.1588  41.9008 0001095  78.2010 281.9113 15.30206166 73721
