OBJECT_NAME,OBJECT_ID,EPOCH,MEAN_MOTION,ECCENTRICITY,INCLINATION,RA_OF_ASC_NODE,ARG_OF_PERICENTER,MEAN_ANOMALY,EPHEMERIS_TYPE,CLASSIFICATION_TYPE,NORAD_CAT_ID,ELEMENT_SET_NO,REV_AT_EPOCH,BSTAR,MEAN_MOTION_DOT,MEAN_MOTION_DDOT
STARLINK-32761,2025-014Q,2026-05-08T11:33:01.213056,15.27584521,.0001607,42.9985,180.0118,271.1010,88.9658,0,U,62749,999,7236,.5833394E-3,.15827E-3,0
STARLINK-32763,2025-014R,2026-05-09T04:40:11.379360,15.27594430,.0001172,42.9995,172.4406,3.3605,356.7254,0,U,62750,999,7251,.81224E-3,.22166E-3,0
STARLINK-32759,2025-014S,2026-05-08T20:10:03.334368,15.27598164,.00017403,42.9982,178.4128,269.5499,90.5153,0,U,62751,999,7241,.54841114E-3,.14868E-3,0
STARLINK-32756,2025-014T,2026-05-08T20:25:33.404448,15.27584841,.00016648,43.0038,175.0330,281.3299,78.7365,0,U,62752,999,7245,.75210827E-3,.20495E-3,0
STARLINK-32751,2025-014U,2026-05-08T20:16:19.965792,15.27592664,.00012525,43.0017,174.9847,261.6662,98.4048,0,U,62753,999,7245,.84846797E-3,.23168E-3,0
STARLINK-32740,2025-014V,2026-05-08T09:33:39.212928,15.27591852,.00014041,43.0008,176.7932,276.9970,83.0722,0,U,62754,999,7239,.38236288E-3,.10278E-3,0
STARLINK-32745,2025-014W,2026-05-08T19:59:39.389856,15.27578166,.00013921,43.0004,174.8931,271.1653,88.9039,0,U,62755,999,7245,.49658382E-3,.13427E-3,0
USA 485,2025-014X,2026-05-09T01:36:06.007680,15.76393396,.0001867,42.9991,348.5861,260.4185,99.6473,0,U,62756,999,7459,.90229E-3,.149236E-2,0
USA 486,2025-014Y,2026-05-08T22:32:52.012896,15.76645412,.0002786,43.0000,349.3610,279.8555,80.2000,0,U,62757,999,7458,.1933E-2,.330959E-2,0
STARLINK-33596,2025-015A,2026-05-09T01:39:45.304704,15.31696130,.0001237,53.1602,42.1338,74.6564,285.4574,0,U,62758,999,7365,.62677E-3,.19132E-3,0
STARLINK-33589,2025-015B,2026-05-09T01:46:26.364000,15.31713636,.0001545,53.1602,42.1628,153.9259,206.1821,0,U,62759,999,7296,.13662E-3,.3878E-4,0
STARLINK-33575,2025-015C,2026-05-09T04:00:01.998720,15.34399562,.0001843,53.1591,41.5151,70.9645,175.9594,0,U,62760,999,575,-.17224E-2,-.58125E-3,0
STARLINK-33584,2025-015D,2026-05-09T00:00:02.000160,15.30195992,.0001095,53.1581,42.2461,81.4759,4.7593,0,U,62761,999,588,-.52028E-3,-.15734E-3,0
STARLINK-33577,2025-015E,2026-05-09T00:24:49.454784,15.31725948,.0002299,53.1616,41.8069,93.7586,266.3679,0,U,62762,999,7372,.54781E-3,.16686E-3,0
STARLINK-33597,2025-015F,2026-05-09T01:53:09.896928,15.31700017,.000114,53.1614,42.1863,101.4920,258.6209,0,U,62763,999,7372,.53328E-3,.16219E-3,0
STARLINK-33579,2025-015G,2026-05-09T00:32:30.768576,15.31717316,.0000815,53.1606,41.8450,54.6478,305.4600,0,U,62764,999,7372,.82509E-3,.25339E-3,0
STARLINK-33592,2025-015H,2026-05-09T00:54:40.099968,15.34378202,.0001033,53.1602,41.9380,117.9254,242.1853,0,U,62765,999,7359,.2764E-3,.8967E-4,0
STARLINK-33595,2025-015J,2026-05-09T04:00:01.998720,15.33469339,.0000913,53.1595,41.3542,71.5929,271.9133,0,U,62766,999,585,.17956E-2,.58996E-3,0
STARLINK-33572,2025-015K,2026-05-09T01:22:13.198080,15.30199081,.0001117,53.1591,42.0574,84.6231,275.4897,0,U,62767,999,7366,.96832E-4,.251E-4,0
STARLINK-33601,2025-015L,2026-05-09T01:13:06.037248,15.30200471,.0001179,53.1588,42.0181,88.8993,271.2143,0,U,62768,999,7372,.14902E-3,.4057E-4,0
STARLINK-33569,2025-015M,2026-05-09T00:48:47.161152,15.30191803,.0001202,53.1591,41.9130,107.5418,252.5714,0,U,62769,999,7372,.14188E-3,.3844E-4,0
STARLINK-33594,2025-015N,2026-05-09T00:38:09.053088,15.30202696,.0001184,53.1603,41.8629,91.5848,268.5289,0,U,62770,999,7372,.35657E-3,.10217E-3,0
STARLINK-33598,2025-015P,2026-05-09T00:51:49.277664,15.30213552,.0001277,53.1593,41.9220,159.8408,200.2643,0,U,62771,999,7372,.86134E-3,.25249E-3,0
STARLINK-33600,2025-015Q,2026-05-09T01:49:34.563072,15.30189471,.0001506,53.1612,42.1717,63.7754,296.3401,0,U,62772,999,7372,.62154E-3,.18088E-3,0
STARLINK-33567,2025-015R,2026-05-09T01:08:32.538048,15.30199470,.0001017,53.1585,41.9948,71.2598,288.8513,0,U,62773,999,7372,.17694E-3,.4885E-4,0
STARLINK-33574,2025-015S,2026-05-09T00:57:54.442080,15.30189586,.0001121,53.1577,41.9508,76.1394,283.9731,0,U,62774,999,7344,.78382E-3,.2292E-3,0
STARLINK-33576,2025-015T,2026-05-09T01:03:46.103040,15.34393379,.000106,53.1588,41.9764,77.9763,282.1358,0,U,62775,999,7366,.19549E-3,.6233E-4,0
STARLINK-33570,2025-015U,2026-05-09T00:56:22.973856,15.30195047,.0001238,53.1591,41.9427,83.0621,277.0521,0,U,62776,999,7366,.16047E-3,.4396E-4,0
STARLINK-33591,2025-015V,2026-05-09T04:00:01.998720,15.33517881,.0001271,53.1590,41.5529,84.8221,156.5777,0,U,62777,999,585,.17305E-2,.56918E-3,0
STARLINK-33573,2025-015W,2026-05-09T00:47:16.060128,15.30206166,.0001095,53.1588,41.9008,78.2010,281.9113,0,U,62778,999,7372,.49661E-3,.1438E-3,0
